{"type": "FeatureCollection", "features": [ {"type": "Feature", "properties": {"norad_id": 33779, "name": "COSMOS 2251 DEB", "group": "cosmos-2251-debris", "lat": 68.34722451373929, "lon": -82.20739698814323, "alt_km": 647.9585305735509, "timestamp": "2025-12-26T13:39:19.372399+00:00", "meta": {"OBJECT_NAME": "COSMOS 2251 DEB", "OBJECT_ID": "1993-036U", "EPOCH": "2025-12-25T19:45:34.828992", "MEAN_MOTION": 14.70801648, "ECCENTRICITY": 0.00157913, "INCLINATION": 74.0448, "RA_OF_ASC_NODE": 145.3462, "ARG_OF_PERICENTER": 178.3148, "MEAN_ANOMALY": 300.1025, "EPHEMERIS_TYPE": 0, "CLASSIFICATION_TYPE": "U", "NORAD_CAT_ID": 33779, "ELEMENT_SET_NO": 999, "REV_AT_EPOCH": 88720, "BSTAR": 0.0028394103, "MEAN_MOTION_DOT": 0.0001739, "MEAN_MOTION_DDOT": 0}, "tle": {"line1": "1 33779U 93036U   25359.82331978  .00017390  00000+0  28394-2 0  9992", "line2": "2 33779  74.0448 145.3462 0015791 178.3148 300.1025 14.70801648887203"}}, "geometry": {"type": "Point", "coordinates": [-82.20739698814323, 68.34722451373929]}}, {"type": "Feature", "properties": {"norad_id": 33782, "name": "COSMOS 2251 DEB", "group": "cosmos-2251-debris", "lat": 13.654775877181507, "lon": 67.9824641958846, "alt_km": 770.5719117709341, "timestamp": "2025-12-26T13:39:19.372409+00:00", "meta": {"OBJECT_NAME": "COSMOS 2251 DEB", "OBJECT_ID": "1993-036X", "EPOCH": "2025-12-26T03:35:04.036992", "MEAN_MOTION": 14.40479298, "ECCENTRICITY": 0.00211595, "INCLINATION": 74.0326, "RA_OF_ASC_NODE": 252.7468, "ARG_OF_PERICENTER": 315.8981, "MEAN_ANOMALY": 194.7355, "EPHEMERIS_TYPE": 0, "CLASSIFICATION_TYPE": "U", "NORAD_CAT_ID": 33782, "ELEMENT_SET_NO": 999, "REV_AT_EPOCH": 88319, "BSTAR": 0.00033355662, "MEAN_MOTION_DOT": 1.037e-05, "MEAN_MOTION_DDOT": 0}, "tle": {"line1": "1 33782U 93036X   25360.14935228  .00001037  00000+0  33356-3 0  9997", "line2": "2 33782  74.0326 252.7468 0021159 315.8981 194.7355 14.40479298883195"}}, "geometry": {"type": "Point", "coordinates": [67.9824641958846, 13.654775877181507]}}, {"type": "Feature", "properties": {"norad_id": 33785, "name": "COSMOS 2251 DEB", "group": "cosmos-2251-debris", "lat": 70.82942813144045, "lon": 89.17503015534925, "alt_km": 656.7954533512348, "timestamp": "2025-12-26T13:39:19.372420+00:00", "meta": {"OBJECT_NAME": "COSMOS 2251 DEB", "OBJECT_ID": "1993-036AA", "EPOCH": "2025-12-26T05:28:23.585664", "MEAN_MOTION": 14.70783753, "ECCENTRICITY": 0.00232928, "INCLINATION": 73.8667, "RA_OF_ASC_NODE": 33.478, "ARG_OF_PERICENTER": 330.6827, "MEAN_ANOMALY": 104.2114, "EPHEMERIS_TYPE": 0, "CLASSIFICATION_TYPE": "U", "NORAD_CAT_ID": 33785, "ELEMENT_SET_NO": 999, "REV_AT_EPOCH": 88705, "BSTAR": 0.0019034513, "MEAN_MOTION_DOT": 0.00011657, "MEAN_MOTION_DDOT": 0}, "tle": {"line1": "1 33785U 93036AA  25360.22805076  .00011657  00000+0  19035-2 0  9992", "line2": "2 33785  73.8667  33.4780 0023292 330.6827 104.2114 14.70783753887053"}}, "geometry": {"type": "Point", "coordinates": [89.17503015534925, 70.82942813144045]}}, {"type": "Feature", "properties": {"norad_id": 33789, "name": "COSMOS 2251 DEB", "group": "cosmos-2251-debris", "lat": 32.99954629618716, "lon": -126.75659436520591, "alt_km": 779.2966094057492, "timestamp": "2025-12-26T13:39:19.372431+00:00", "meta": {"OBJECT_NAME": "COSMOS 2251 DEB", "OBJECT_ID": "1993-036AE", "EPOCH": "2025-12-26T06:19:33.661920", "MEAN_MOTION": 13.88824773, "ECCENTRICITY": 0.02394843, "INCLINATION": 74.0643, "RA_OF_ASC_NODE": 64.454, "ARG_OF_PERICENTER": 177.0952, "MEAN_ANOMALY": 243.4193, "EPHEMERIS_TYPE": 0, "CLASSIFICATION_TYPE": "U", "NORAD_CAT_ID": 33789, "ELEMENT_SET_NO": 999, "REV_AT_EPOCH": 85283, "BSTAR": 0.0006308553, "MEAN_MOTION_DOT": 9.36e-06, "MEAN_MOTION_DDOT": 0}, "tle": {"line1": "1 33789U 93036AE  25360.26358405  .00000936  00000+0  63086-3 0  9993", "line2": "2 33789  74.0643  64.4540 0239484 177.0952 243.4193 13.88824773852833"}}, "geometry": {"type": "Point", "coordinates": [-126.75659436520591, 32.99954629618716]}}, {"type": "Feature", "properties": {"norad_id": 33791, "name": "COSMOS 2251 DEB", "group": "cosmos-2251-debris", "lat": -22.753946129984293, "lon": -161.05587551594243, "alt_km": 731.6751775878165, "timestamp": "2025-12-26T13:39:19.372442+00:00", "meta": {"OBJECT_NAME": "COSMOS 2251 DEB", "OBJECT_ID": "1993-036AG", "EPOCH": "2025-12-26T07:46:29.451936", "MEAN_MOTION": 14.43198374, "ECCENTRICITY": 0.00299678, "INCLINATION": 74.1752, "RA_OF_ASC_NODE": 12.5633, "ARG_OF_PERICENTER": 207.0398, "MEAN_ANOMALY": 164.076, "EPHEMERIS_TYPE": 0, "CLASSIFICATION_TYPE": "U", "NORAD_CAT_ID": 33791, "ELEMENT_SET_NO": 999, "REV_AT_EPOCH": 88248, "BSTAR": 0.0009403362, "MEAN_MOTION_DOT": 3.154e-05, "MEAN_MOTION_DDOT": 0}, "tle": {"line1": "1 33791U 93036AG  25360.32395199  .00003154  00000+0  94034-3 0  9996", "line2": "2 33791  74.1752  12.5633 0029967 207.0398 164.0760 14.43198374882481"}}, "geometry": {"type": "Point", "coordinates": [-161.05587551594243, -22.753946129984293]}}, {"type": "Feature", "properties": {"norad_id": 33792, "name": "COSMOS 2251 DEB", "group": "cosmos-2251-debris", "lat": 72.68983171144998, "lon": 75.35048062351628, "alt_km": 964.2541772676395, "timestamp": "2025-12-26T13:39:19.372452+00:00", "meta": {"OBJECT_NAME": "COSMOS 2251 DEB", "OBJECT_ID": "1993-036AH", "EPOCH": "2025-12-26T01:02:49.375392", "MEAN_MOTION": 13.45849631, "ECCENTRICITY": 0.04278848, "INCLINATION": 73.9014, "RA_OF_ASC_NODE": 324.0982, "ARG_OF_PERICENTER": 26.3273, "MEAN_ANOMALY": 41.092, "EPHEMERIS_TYPE": 0, "CLASSIFICATION_TYPE": "U", "NORAD_CAT_ID": 33792, "ELEMENT_SET_NO": 999, "REV_AT_EPOCH": 82621, "BSTAR": 0.0011850719, "MEAN_MOTION_DOT": 1.21e-05, "MEAN_MOTION_DDOT": 0}, "tle": {"line1": "1 33792U 93036AH  25360.04362703  .00001210  00000+0  11851-2 0  9997", "line2": "2 33792  73.9014 324.0982 0427884  26.3273  41.0920 13.45849631826213"}}, "geometry": {"type": "Point", "coordinates": [75.35048062351628, 72.68983171144998]}}, {"type": "Feature", "properties": {"norad_id": 33793, "name": "COSMOS 2251 DEB", "group": "cosmos-2251-debris", "lat": 39.89975010401133, "lon": 138.68254737506862, "alt_km": 831.7285600432451, "timestamp": "2025-12-26T13:39:19.372464+00:00", "meta": {"OBJECT_NAME": "COSMOS 2251 DEB", "OBJECT_ID": "1993-036AJ", "EPOCH": "2025-12-25T15:40:17.961024", "MEAN_MOTION": 14.27767266, "ECCENTRICITY": 0.0078975, "INCLINATION": 73.9809, "RA_OF_ASC_NODE": 126.4479, "ARG_OF_PERICENTER": 274.0481, "MEAN_ANOMALY": 100.9183, "EPHEMERIS_TYPE": 0, "CLASSIFICATION_TYPE": "U", "NORAD_CAT_ID": 33793, "ELEMENT_SET_NO": 999, "REV_AT_EPOCH": 87391, "BSTAR": 0.00079111, "MEAN_MOTION_DOT": 1.993e-05, "MEAN_MOTION_DDOT": 0}, "tle": {"line1": "1 33793U 93036AJ  25359.65298566  .00001993  00000+0  79111-3 0  9990", "line2": "2 33793  73.9809 126.4479 0078975 274.0481 100.9183 14.27767266873916"}}, "geometry": {"type": "Point", "coordinates": [138.68254737506862, 39.89975010401133]}}, {"type": "Feature", "properties": {"norad_id": 33795, "name": "COSMOS 2251 DEB", "group": "cosmos-2251-debris", "lat": -73.75816931381905, "lon": -52.221841924477594, "alt_km": 571.6928827994498, "timestamp": "2025-12-26T13:39:19.372474+00:00", "meta": {"OBJECT_NAME": "COSMOS 2251 DEB", "OBJECT_ID": "1993-036AL", "EPOCH": "2025-12-26T04:46:37.901856", "MEAN_MOTION": 15.05958772, "ECCENTRICITY": 0.00302715, "INCLINATION": 74.0312, "RA_OF_ASC_NODE": 49.1306, "ARG_OF_PERICENTER": 127.1576, "MEAN_ANOMALY": 294.992, "EPHEMERIS_TYPE": 0, "CLASSIFICATION_TYPE": "U", "NORAD_CAT_ID": 33795, "ELEMENT_SET_NO": 999, "REV_AT_EPOCH": 90224, "BSTAR": 0.0011229292, "MEAN_MOTION_DOT": 0.00016519, "MEAN_MOTION_DDOT": 0}, "tle": {"line1": "1 33795U 93036AL  25360.19904979  .00016519  00000+0  11229-2 0  9990", "line2": "2 33795  74.0312  49.1306 0030271 127.1576 294.9920 15.05958772902242"}}, "geometry": {"type": "Point", "coordinates": [-52.221841924477594, -73.75816931381905]}}, {"type": "Feature", "properties": {"norad_id": 33797, "name": "COSMOS 2251 DEB", "group": "cosmos-2251-debris", "lat": -43.70285979112252, "lon": -155.45873438761603, "alt_km": 735.5631043243857, "timestamp": "2025-12-26T13:39:19.372485+00:00", "meta": {"OBJECT_NAME": "COSMOS 2251 DEB", "OBJECT_ID": "1993-036AN", "EPOCH": "2025-12-26T07:44:07.844064", "MEAN_MOTION": 14.57894959, "ECCENTRICITY": 0.00603509, "INCLINATION": 74.0465, "RA_OF_ASC_NODE": 9.1439, "ARG_OF_PERICENTER": 92.9078, "MEAN_ANOMALY": 278.3929, "EPHEMERIS_TYPE": 0, "CLASSIFICATION_TYPE": "U", "NORAD_CAT_ID": 33797, "ELEMENT_SET_NO": 999, "REV_AT_EPOCH": 89183, "BSTAR": 0.00040315274, "MEAN_MOTION_DOT": 1.865e-05, "MEAN_MOTION_DDOT": 0}, "tle": {"line1": "1 33797U 93036AN  25360.32231301  .00001865  00000+0  40315-3 0  9996", "line2": "2 33797  74.0465   9.1439 0060350  92.9078 278.3929 14.57894959891832"}}, "geometry": {"type": "Point", "coordinates": [-155.45873438761603, -43.70285979112252]}}, {"type": "Feature", "properties": {"norad_id": 33798, "name": "COSMOS 2251 DEB", "group": "cosmos-2251-debris", "lat": 14.506309531479824, "lon": -74.1016605486691, "alt_km": 714.1747430633704, "timestamp": "2025-12-26T13:39:19.372495+00:00", "meta": {"OBJECT_NAME": "COSMOS 2251 DEB", "OBJECT_ID": "1993-036AP", "EPOCH": "2025-12-25T15:49:19.517088", "MEAN_MOTION": 14.44631109, "ECCENTRICITY": 0.0092307, "INCLINATION": 74.0295, "RA_OF_ASC_NODE": 111.8414, "ARG_OF_PERICENTER": 230.4067, "MEAN_ANOMALY": 246.0836, "EPHEMERIS_TYPE": 0, "CLASSIFICATION_TYPE": "U", "NORAD_CAT_ID": 33798, "ELEMENT_SET_NO": 999, "REV_AT_EPOCH": 88780, "BSTAR": 0.00020296, "MEAN_MOTION_DOT": 7.11e-06, "MEAN_MOTION_DDOT": 0}, "tle": {"line1": "1 33798U 93036AP  25359.65925367  .00000711  00000+0  20296-3 0  9998", "line2": "2 33798  74.0295 111.8414 0092307 230.4067 246.0836 14.44631109887805"}}, "geometry": {"type": "Point", "coordinates": [-74.1016605486691, 14.506309531479824]}}]}